satname,norad_id,inclination_deg,eccentricity,mean_motion_rev_per_day,perigee_km,apogee_km,l1,l2
STARLINK-1446,45663,53.0278,0.0005807,15.39931336,442.34921638783726,450.27513165854816,1 45663U 20035G   26004.55527493  .00021196  00000+0  53271-3 0  9995,2 45663  53.0278 303.3316 0005807  75.9056 284.2592 15.39931336309784
STARLINK-1448,45665,53.0577,0.000155,15.06391889,546.1629842169714,548.3098499762709,1 45665U 20035J   26004.66913923 -.00001231  00000+0 -63764-4 0  9995,2 45665  53.0577 354.0170 0001550  94.9013 265.2153 15.06391889309075
STARLINK-1451,45668,53.0558,0.0001736,15.06715323,545.0432341358573,547.4473796728153,1 45668U 20035M   26004.67236425  .00027861  00000+0  18660-2 0  9992,2 45668  53.0558 354.3156 0001736  88.2139 271.9049 15.06715323309087
STARLINK-1452,45669,53.0389,0.0003567,15.35026787,458.4014676568204,463.2803945128562,1 45669U 20035N   26004.91668980  .00089222  00000+0  25684-2 0  9998,2 45669  53.0389 323.0909 0003567 127.4155 134.5206 15.35026787  5800
STARLINK-1453,45670,53.0546,0.0005985,15.39425388,443.7220480656688,451.89270348347054,1 45670U 20035P   26004.91668980  .00098317  00000+0  24506-2 0  9997,2 45670  53.0546 317.3274 0005985  96.4953  77.3928 15.39425388  5859
STARLINK-1454,45671,53.0554,0.0001446,15.06389682,546.2417713284985,548.2445912769317,1 45671U 20035Q   26004.69493067  .00000845  00000+0  75652-4 0  9994,2 45671  53.0554 353.9045 0001446  86.0154 274.1001 15.06389682309077
STARLINK-1456,45673,53.0546,0.0004383,15.37358219,450.93039906942613,456.91938452377417,1 45673U 20035S   26004.91668980  .00129189  00000+0  34279-2 0  9990,2 45673  53.0546 349.3955 0004383  75.0490 331.0660 15.37358219  5830
STARLINK-1457,45674,53.0526,0.0012928,15.53892881,396.60307683669726,414.1425197711924,1 45674U 20035T   26004.91668980  .00183281  00000+0  27310-2 0  9992,2 45674  53.0526 336.6623 0012928  57.0088 305.8122 15.53892881  5947
STARLINK-1458,45675,53.0553,0.0001551,15.06419835,546.0766550543858,548.2248793197659,1 45675U 20035U   26004.37423729  .00004251  00000+0  30395-3 0  9990,2 45675  53.0553 355.3398 0001551  89.3902 270.7265 15.06419835309002
STARLINK-1460,45676,53.0551,0.0001345,15.06420041,546.2186847209014,548.0815869604421,1 45676U 20035V   26004.67648502  .00006941  00000+0  48411-3 0  9998,2 45676  53.0551 353.9846 0001345  93.6102 266.5041 15.06420041309044
STARLINK-1392,45677,53.0546,0.0001368,15.0639098,546.291811612522,548.1865945416839,1 45677U 20035W   26004.68755771  .00001414  00000+0  11385-3 0  9997,2 45677  53.0546 353.9366 0001368  84.6980 275.4165 15.06390980309083
STARLINK-1394,45679,53.0545,0.0003409,15.38131407,449.3068697219769,453.96340836637773,1 45679U 20035Y   26004.91668980  .00120590  00000+0  31251-2 0  9990,2 45679  53.0545 339.4424 0003409  83.7513  71.0421 15.38131407  5785
STARLINK-1402,45685,53.0531,0.000901,15.34904851,455.0408824877768,467.36537339833103,1 45685U 20035AE  26004.91668980  .00096016  00000+0  27687-2 0  9990,2 45685  53.0531 324.6781 0009010  51.4914 335.1401 15.34904851  5857
STARLINK-1404,45686,53.0546,0.00014,15.0639973,546.2428365355509,548.181934363477,1 45686U 20035AF  26004.31251446 -.00002198  00000+0 -12869-3 0  9997,2 45686  53.0546 345.6209 0001400 106.2089 253.9054 15.06399730309175
STARLINK-1413,45689,53.0559,0.0001289,15.06394567,546.3355297753424,548.1208889263125,1 45689U 20035AJ  26004.66267958  .00001973  00000+0  15133-3 0  9998,2 45689  53.0559 344.0467 0001289  89.7521 270.3615 15.06394567309137
STARLINK-1417,45693,53.0534,0.0005899,15.08998042,535.1797872548987,543.3409326601768,1 45693U 20035AN  26004.35645529  .00039823  00000+0  24944-2 0  9997,2 45693  53.0534 345.0319 0005899  50.0305 310.1202 15.08998042309173
STARLINK-1420,45695,53.0565,0.0001523,15.063987,546.1608110617235,548.2702734460954,1 45695U 20035AQ  26004.59354457  .00005659  00000+0  39848-3 0  9992,2 45695  53.0565 324.3481 0001523  92.5156 267.6007 15.06398700309491
STARLINK-1422,45696,53.0562,0.0001431,15.06386479,546.2619748571224,548.2440214745975,1 45696U 20035AR  26004.67006329 -.00002046  00000+0 -11857-3 0  9993,2 45696  53.0562 344.0148 0001431  96.2856 263.8296 15.06386479309212
STARLINK-1351,45697,53.0561,0.0001796,15.1034577,533.9030513283515,536.3863021066281,1 45697U 20035AS  26004.15200970  .00037598  00000+0  22719-2 0  9991,2 45697  53.0561 326.0327 0001796 101.3580 258.7612 15.10345770309430
STARLINK-1398,45699,53.0447,0.0007155,15.66120538,365.18972518553255,374.84633503362056,1 45699U 20035AU  26004.91668980  .00124218  00000+0  11733-2 0  9996,2 45699  53.0447 258.6944 0007155 104.5215  16.0100 15.66120538  5934
STARLINK-1400,45700,53.0577,0.0001651,15.06425224,545.9908888063674,548.2776133734769,1 45700U 20035AV  26004.15583955  .00002408  00000+0  18038-3 0  9995,2 45700  53.0577 326.3210 0001651  84.6141 275.5036 15.06425224309426
STARLINK-1403,45701,53.054,0.0001497,15.0639638,546.1859263991046,548.2593790791343,1 45701U 20035AW  26004.84881934  .00015727  00000+0  10724-2 0  9991,2 45701  53.0540 323.2114 0001497  79.4062 280.7096 15.06396380309523
STARLINK-1407,45703,53.0389,0.0004835,15.48043997,419.1604656798445,425.73663190552725,1 45703U 20035AY  26004.12539078  .00075847  00000+0  14194-2 0  9997,2 45703  53.0389 267.5022 0004835 244.1138 115.9370 15.48043997310253
STARLINK-1411,45706,53.0491,0.0002652,15.51595918,410.265200563078,413.8667242143292,1 45706U 20035BB  26004.79880756  .00090756  00000+0  14946-2 0  9996,2 45706  53.0491 290.9827 0002652 126.0886 234.0369 15.51595918309973
STARLINK-1423,45710,53.0568,0.00011,15.0639491,546.4653680417177,547.9889481565006,1 45710U 20035BF  26004.60923103 -.00000280  00000+0  91450-7 0  9999,2 45710  53.0568 324.2854 0001100 114.6801 245.4302 15.06394910309490
STARLINK-1433,45711,53.057,0.0001368,15.06417404,546.2108373126812,548.1055980842439,1 45711U 20035BG  26004.59079921 -.00000369  00000+0 -58426-5 0  9991,2 45711  53.0570 324.3695 0001368  99.8132 260.3011 15.06417404309481
STARLINK-1434,45712,53.0501,0.0002993,15.20172482,503.2596714289484,507.3801087233478,1 45712U 20035BH  26004.59551208  .00044029  00000+0  20111-2 0  9991,2 45712  53.0501 315.3326 0002993  36.5917 323.5282 15.20172482309629
STARLINK-1465,45731,53.0547,0.0001222,15.06403487,546.3545945183005,548.0471470939265,1 45731U 20038B   26004.75665840  .00001407  00000+0  11329-3 0  9996,2 45731  53.0547 163.6210 0001222  95.4305 264.6823 15.06403487306556
STARLINK-1471,45735,53.0508,0.000196,15.44259032,432.22103860930656,434.8912223164489,1 45735U 20038F   26004.53764331  .00023947  00000+0  52008-3 0  9993,2 45735  53.0508  88.2486 0001960  59.1233 300.9965 15.44259032307605
STARLINK-1474,45738,53.0307,0.0004906,15.82363377,320.4711823081225,327.0470827933814,1 45738U 20038J   26004.91668980  .00237487  00000+0  10950-2 0  9996,2 45738  53.0307  28.7864 0004906  65.8465 199.0243 15.82363377  5980
STARLINK-1480,45741,53.0536,9.21e-05,15.37007553,454.3346735622699,455.59333076686835,1 45741U 20038M   26004.79065464  .00098274  00000+0  26511-2 0  9993,2 45741  53.0536 160.5167 0000921  29.1509 330.9544 15.37007553306619
STARLINK-1500,45744,53.0383,0.0002692,15.3117352,470.4657140887184,474.15399467511725,1 45744U 20038Q   26004.58813953  .00024716  00000+0  81875-3 0  9992,2 45744  53.0383 132.5864 0002692  59.7189 300.4076 15.31173520306989
STARLINK-1504,45746,53.0264,0.0002408,15.48145576,420.51356342308827,423.78858215894434,1 45746U 20038S   26004.50118945  .00046236  00000+0  86893-3 0  9991,2 45746  53.0264  90.7800 0002408  15.9969 344.1113 15.48145576307558
STARLINK-1506,45747,53.0775,0.0003665,15.23857333,491.7000684424129,496.73750523416584,1 45747U 20038T   26004.63363807  .00012057  00000+0  50637-3 0  9996,2 45747  53.0775 138.1502 0003665  74.4398 285.7003 15.23857333306915
STARLINK-1464,45751,53.053,0.0001085,15.06435928,546.3500576099632,547.8528343527414,1 45751U 20038X   26004.74006763  .00009242  00000+0  63794-3 0  9998,2 45751  53.0530 143.6973 0001085  89.1836 270.9277 15.06435928306840
STARLINK-1477,45754,53.0522,0.0004164,15.10468387,531.8919987698064,537.6490681636769,1 45754U 20038AA  26004.66360705  .00039875  00000+0  23993-2 0  9992,2 45754  53.0522 143.0763 0004164 162.6798 197.4335 15.10468387306848
STARLINK-1478,45755,53.0557,0.0001449,15.21873228,499.19393055595356,501.18726989449897,1 45755U 20038AB  26004.91668980  .01909039  00000+0  75035-1 0  9999,2 45755  53.0557 142.3421 0001449  65.9429 283.3000 15.21873228  5834
STARLINK-1484,45756,53.0099,0.0004283,15.7501115,341.7201049535788,347.47880099919985,1 45756U 20038AC  26004.91668980  .00120775  00000+0  78819-3 0  9996,2 45756  53.0099  19.5947 0004283  55.9993 261.0475 15.75011150  5766
STARLINK-1493,45759,53.0563,0.0001351,15.06398752,546.2797677742465,548.1509979881021,1 45759U 20038AF  26004.69584706  .00000711  00000+0  66633-4 0  9996,2 45759  53.0563 143.8966 0001351  94.8818 265.2326 15.06398752306820
STARLINK-1494,45760,53.0534,0.0001652,15.57575676,393.5569079460902,395.79464528748485,1 45760U 20038AG  26004.53974800  .00045722  00000+0  61194-3 0  9996,2 45760  53.0534 107.5346 0001652 232.0581 128.0281 15.57575676307337
STARLINK-1502,45764,53.0543,0.0001225,15.06443053,546.2312708019062,547.9279488713173,1 45764U 20038AL  26004.66264734  .00011247  00000+0  77186-3 0  9995,2 45764  53.0543 144.0455 0001225  92.7425 267.3704 15.06443053306830
STARLINK-1470,45772,53.0482,0.0002982,15.22920378,494.98706672014396,499.0874206390754,1 45772U 20038AU  26004.58783544  .00055358  00000+0  23259-2 0  9992,2 45772  53.0482 110.5808 0002982 130.5714 229.5542 15.22920378307293
STARLINK-1482,45773,53.0551,0.0001354,15.06387557,546.3119968452684,548.1873915620581,1 45773U 20038AV  26004.69401037 -.00001428  00000+0 -77045-4 0  9994,2 45773  53.0551 123.9056 0001354  93.3542 266.7602 15.06387557307110
